Ephemeris / WWW_USER Mon Mar  4 19:38:15 2024 Pasadena, USA      / Horizons
*******************************************************************************
Target body name: Moon (301)                      {source: DE441}
Center body name: Earth (399)                     {source: DE441}
Center-site name: BODY CENTER
*******************************************************************************
Start time      : A.D. 2024-Feb-15 06:07:00.0000 TDB
Stop  time      : A.D. 2024-Feb-24 22:46:00.0000 TDB
Step-size       : 60 minutes
*******************************************************************************
Center geodetic : 0.0, 0.0, 0.0                   {E-lon(deg),Lat(deg),Alt(km)}
Center cylindric: 0.0, 0.0, 0.0                   {E-lon(deg),Dxy(km),Dz(km)}
Center radii    : 6378.137, 6378.137, 6356.752 km {Equator_a, b, pole_c}
Output units    : KM-S
Calendar mode   : Mixed Julian/Gregorian
Output type     : GEOMETRIC cartesian states
Output format   : 3 (position, velocity, LT, range, range-rate)
EOP file        : eop.240304.p240528
EOP coverage    : DATA-BASED 1962-JAN-20 TO 2024-MAR-04. PREDICTS-> 2024-MAY-27
Reference frame : Ecliptic of J2000.0
*******************************************************************************
            JDTDB,            Calendar Date (TDB),                      X,                      Y,                      Z,                     VX,                     VY,                     VZ,                     LT,                     RG,                     RR,
**************************************************************************************************************************************************************************************************************************************************************************
$$SOE
2460357.004861111, A.D. 2024-Feb-16 12:07:00.0000,  2.150987582788467E+05,  3.125723618283115E+05,  2.139951507993197E+04, -8.116245710493821E-01,  6.301274282945983E-01,  7.512490994600565E-02,  1.267661604755159E+00,  3.800353884017735E+05,  6.312206302068429E-02,
2460357.046527778, A.D. 2024-Feb-16 13:07:00.0000,  2.121666641298183E+05,  3.148258162512794E+05,  2.166893592778480E+04, -8.173021528018235E-01,  6.217843248822682E-01,  7.455231498189621E-02,  1.268419000065120E+00,  3.802624498034245E+05,  6.302214593165369E-02,
2460357.088194444, A.D. 2024-Feb-16 14:07:00.0000,  2.092142870957320E+05,  3.170491564687618E+05,  2.193628442165909E+04, -8.228928040116459E-01,  6.133974724655448E-01,  7.397361490096083E-02,  1.269175159179390E+00,  3.804891406029306E+05,  6.291618755793864E-02,
2460357.129861111, A.D. 2024-Feb-16 15:07:00.0000,  2.062419405148093E+05,  3.192422266927389E+05,  2.220153872055179E+04, -8.283963106609968E-01,  6.049678197163229E-01,  7.338888605499819E-02,  1.269930010079409E+00,  3.807154392096707E+05,  6.280427571495877E-02,
2460357.171527778, A.D. 2024-Feb-16 16:07:00.0000,  2.032499384775956E+05,  3.214048745456397E+05,  2.246467725841446E+04, -8.338124687891016E-01,  5.964963126426495E-01,  7.279820484303121E-02,  1.270683481802349E+00,  3.809413243495243E+05,  6.268649841593615E-02,
2460357.213194444, A.D. 2024-Feb-16 17:07:00.0000,  2.002385957909803E+05,  3.235369510506056E+05,  2.272567874430443E+04, -8.391410843670158E-01,  5.879838945078681E-01,  7.220164770098142E-02,  1.271435504443304E+00,  3.811667750655281E+05,  6.256294384033631E-02,
2460357.254861111, A.D. 2024-Feb-16 18:07:00.0000,  1.972082279426667E+05,  3.256383106214680E+05,  2.298452216250006E+04, -8.443819731729607E-01,  5.794315057529176E-01,  7.159929109162863E-02,  1.272186009157096E+00,  3.813917707184162E+05,  6.243370030277003E-02,
2460357.296527778, A.D. 2024-Feb-16 19:07:00.0000,  1.941591510660901E+05,  3.277088110524539E+05,  2.324118677257893E+04, -8.495349606682926E-01,  5.708400839217223E-01,  7.099121149485232E-02,  1.272934928159713E+00,  3.816162909870537E+05,  6.229885622236371E-02,
2460357.338194444, A.D. 2024-Feb-16 20:07:00.0000,  1.910916819057799E+05,  3.297483135076249E+05,  2.349565210946313E+04, -8.545998818741665E-01,  5.622105635896117E-01,  7.037748539815095E-02,  1.273682194729382E+00,  3.818403158687563E+05,  6.215850009259418E-02,
2460357.379861111, A.D. 2024-Feb-16 21:07:00.0000,  1.880061377831660E+05,  3.317566825100678E+05,  2.374789798342925E+04, -8.595765812489449E-01,  5.535438762947079E-01,  6.975818928743463E-02,  1.274427743207290E+00,  3.820638256795062E+05,  6.201272045159589E-02,
2460357.421527778, A.D. 2024-Feb-16 22:07:00.0000,  1.849028365628241E+05,  3.337337859308403E+05,  2.399790448008705E+04, -8.644649125664039E-01,  5.448409504722158E-01,  6.913339963808751E-02,  1.275171508997932E+00,  3.822868010540591E+05,  6.186160585293808E-02,
2460357.463194444, A.D. 2024-Feb-16 23:07:00.0000,  1.817820966191578E+05,  3.356794949776870E+05,  2.424565196032569E+04, -8.692647387947845E-01,  5.361027113915557E-01,  6.850319290629597E-02,  1.275913428569134E+00,  3.825092229459481E+05,  6.170524483687550E-02,
2460357.504861111, A.D. 2024-Feb-17 00:07:00.0000,  1.786442368035155E+05,  3.375936841835333E+05,  2.449112106022915E+04, -8.739759319767362E-01,  5.273300810962723E-01,  6.786764552063793E-02,  1.276653439451719E+00,  3.827310726273849E+05,  6.154372590207092E-02,
2460357.546527778, A.D. 2024-Feb-17 01:07:00.0000,  1.754895764117369E+05,  3.394762313947685E+05,  2.473429269096273E+04, -8.785983731101940E-01,  5.185239783466580E-01,  6.722683387392933E-02,  1.277391480238838E+00,  3.829523316890596E+05,  6.137713747779449E-02,
2460357.588194444, A.D. 2024-Feb-17 02:07:00.0000,  1.723184351521270E+05,  3.413270177593264E+05,  2.497514803862927E+04, -8.831319520302369E-01,  5.096853185650276E-01,  6.658083431532355E-02,  1.278127490584976E+00,  3.831729820398416E+05,  6.120556789659438E-02,
2460357.629861111, A.D. 2024-Feb-17 03:07:00.0000,  1.691311331138534E+05,  3.431459277145745E+05,  2.521366856409852E+04, -8.875765672919582E-01,  5.008150137835803E-01,  6.592972314265874E-02,  1.278861411204626E+00,  3.833930059063834E+05,  6.102910536744629E-02,
2460357.671527778, A.D. 2024-Feb-17 04:07:00.0000,  1.659279907357636E+05,  3.449328489750189E+05,  2.544983600280911E+04, -8.919321260543939E-01,  4.919139725947870E-01,  6.527357659504954E-02,  1.279593183870648E+00,  3.836123858326276E+05,  6.084783794937444E-02,
2460357.713194444, A.D. 2024-Feb-17 05:07:00.0000,  1.627093287756183E+05,  3.466876725198362E+05,  2.568363236454377E+04, -8.961985439655380E-01,  4.829831001042381E-01,  6.461247084571833E-02,  1.280322751412313E+00,  3.838311046792202E+05,  6.066185352554874E-02,
2460357.754861111, A.D. 2024-Feb-17 06:07:00.0000,  1.594754682797361E+05,  3.484102925802390E+05,  2.591503993317988E+04, -9.003757450484818E-01,  4.740232978858908E-01,  6.394648199506095E-02,  1.281050057713033E+00,  3.840491456228319E+05,  6.047123977785453E-02,
2460357.796527778, A.D. 2024-Feb-17 07:07:00.0000,  1.562267305530465E+05,  3.501006066266857E+05,  2.614404126641508E+04, -9.044636615887065E-01,  4.650354639396530E-01,  6.327568606394349E-02,  1.281775047707801E+00,  3.842664921553888E+05,  6.027608416193685E-02,
2460357.838194444, A.D. 2024-Feb-17 08:07:00.0000,  1.529634371295467E+05,  3.517585153559400E+05,  2.637061919546925E+04, -9.084622340225589E-01,  4.560204926512404E-01,  6.260015898722443E-02,  1.282497667380321E+00,  3.844831280832129E+05,  6.007647388271425E-02,
2460357.879861111, A.D. 2024-Feb-17 09:07:00.0000,  1.496859097431567E+05,  3.533839226779918E+05,  2.659475682476343E+04, -9.123714108269377E-01,  4.469792747542475E-01,  6.191997660749857E-02,  1.283217863759857E+00,  3.846990375260765E+05,  5.987249587036591E-02,
2460357.921527778, A.D. 2024-Feb-17 10:07:00.0000,  1.463944702989710E+05,  3.549767357028440E+05,  2.681643753157691E+04, -9.161911484102137E-01,  4.379126972943670E-01,  6.123521466905749E-02,  1.283935584917787E+00,  3.849142049161709E+05,  5.966423675678582E-02,
2460357.963194444, A.D. 2024-Feb-17 11:07:00.0000,  1.430894408448988E+05,  3.565368647271749E+05,  2.703564496568276E+04, -9.199214110044110E-01,  4.288216435957021E-01,  6.054594881206166E-02,  1.284650779963885E+00,  3.851286149969904E+05,  5.945178285250596E-02,
2460358.004861111, A.D. 2024-Feb-17 12:07:00.0000,  1.397711435436916E+05,  3.580642232208829E+05,  2.725236304896261E+04, -9.235621705586705E-01,  4.197069932291064E-01,  5.985225456692111E-02,  1.285363399042329E+00,  3.853422528221347E+05,  5.923522012408423E-02,
2460358.046527778, A.D. 2024-Feb-17 13:07:00.0000,  1.364399006453513E+05,  3.595587278135209E+05,  2.746657597500192E+04, -9.271134066340087E-01,  4.105696219824922E-01,  5.915420734887758E-02,  1.286073393327430E+00,  3.855551037540309E+05,  5.901463417195617E-02,
2460358.088194444, A.D. 2024-Feb-17 14:07:00.0000,  1.330960344599149E+05,  3.610202982806269E+05,  2.767826820866589E+04, -9.305751062994027E-01,  4.014104018330513E-01,  5.845188245278632E-02,  1.286780715019108E+00,  3.857671534625758E+05,  5.879011020874807E-02,
2460358.129861111, A.D. 2024-Feb-17 15:07:00.0000,  1.297398673306105E+05,  3.624488575299585E+05,  2.788742448565687E+04, -9.339472640292062E-01,  3.922302009213243E-01,  5.774535504809011E-02,  1.287485317338110E+00,  3.859783879237020E+05,  5.856173303805125E-02,
2460358.171527778, A.D. 2024-Feb-17 16:07:00.0000,  1.263717216073813E+05,  3.638443315876367E+05,  2.809402981205427E+04, -9.372298816019187E-01,  3.830298835270630E-01,  5.703470017398377E-02,  1.288187154520970E+00,  3.861887934178674E+05,  5.832958703364924E-02,
2460358.213194444, A.D. 2024-Feb-17 17:07:00.0000,  1.229919196207701E+05,  3.652066495842063E+05,  2.829806946383700E+04, -9.404229680003166E-01,  3.738103100468284E-01,  5.631999273476182E-02,  1.288886181814724E+00,  3.863983565284710E+05,  5.809375611920259E-02,
